NORAD_CAT_ID,OBJECT_NAME,OBJECT_TYPE,EPOCH,MEAN_MOTION,ECCENTRICITY,INCLINATION,RA_OF_ASC_NODE,ARG_OF_PERICENTER,MEAN_ANOMALY,BSTAR,MEAN_MOTION_DOT,MEAN_MOTION_DDOT,TLE_LINE0,TLE_LINE1,TLE_LINE2,SEMIMAJOR_AXIS,PERIOD,APOGEE,PERIGEE,DECAYED
53727.0,STARLINK-4701,PAYLOAD,2023-06-15 02:53:14,15.08843135,0.0001255,53.2178,56.8631,83.0689,277.0446,-7.4336e-05,-1.471e-05,0.0,0 STARLINK-4701,1 53727U 22107AD  23166.12030616 -.00001471  00000-0 -74336-4 0  9995,2 53727  53.2178  56.8631 0001255  83.0689 277.0446 15.08843135 43205,6917.871,95.437,540.604,538.868,0.0
53727.0,STARLINK-4701,PAYLOAD,2023-06-15 17:11:43,15.08835558,0.0001233,53.2172,54.1871,78.2901,281.8229,1.0372e-05,-1.23e-06,0.0,0 STARLINK-4701,1 53727U 22107AD  23166.71647042 -.00000123  00000-0  10372-4 0  9999,2 53727  53.2172  54.1871 0001233  78.2901 281.8229 15.08835558 43892,6917.894,95.438,540.612,538.906,0.0
53727.0,STARLINK-4701,PAYLOAD,2023-06-16 09:05:33,15.08843967,0.0001135,53.217,51.2138,80.7992,279.3128,0.0001054,1.39e-05,0.0,0 STARLINK-4701,1 53727U 22107AD  23167.37886232  .00001390  00000-0  10540-3 0  9990,2 53727  53.2170  51.2138 0001135  80.7992 279.3128 15.08843967 43391,6917.868,95.437,540.518,538.948,0.0
53727.0,STARLINK-4701,PAYLOAD,2023-06-17 02:34:47,15.08852263,0.0001208,53.2166,47.9427,84.4445,275.6685,0.00018636,2.68e-05,0.0,0 STARLINK-4701,1 53727U 22107AD  23168.10749349  .00002680  00000-0  18636-3 0  9996,2 53727  53.2166  47.9427 0001208  84.4445 275.6685 15.08852263 43503,6917.843,95.437,540.544,538.872,0.0
53727.0,STARLINK-4701,PAYLOAD,2023-06-17 08:56:21,15.08824962,9.8e-05,53.2172,46.7529,89.8484,270.262,-5.389e-05,-1.145e-05,0.0,0 STARLINK-4701,1 53727U 22107AD  23168.37247621 -.00001145  00000-0 -53890-4 0  9990,2 53727  53.2172  46.7529 0000980  89.8484 270.2620 15.08824962 43547,6917.926,95.439,540.469,539.113,0.0
53727.0,STARLINK-4701,PAYLOAD,2023-06-17 16:53:18,15.08821686,0.0001191,53.2174,45.2679,96.8402,263.2725,-0.00013347,-2.41e-05,0.0,0 STARLINK-4701,1 53727U 22107AD  23168.70368591 -.00002410  00000-0 -13347-3 0  9995,2 53727  53.2174  45.2679 0001191  96.8402 263.2725 15.08821686 44192,6917.936,95.439,540.625,538.977,0.0
53727.0,STARLINK-4701,PAYLOAD,2023-06-18 08:47:09,15.08836036,0.000121,53.2179,42.2939,95.6241,264.4889,-3.3745e-05,-8.25e-06,0.0,0 STARLINK-4701,1 53727U 22107AD  23169.36607816 -.00000825  00000-0 -33745-4 0  9997,2 53727  53.2179  42.2939 0001210  95.6241 264.4889 15.08836036 43696,6917.893,95.438,540.595,538.92,0.0
53727.0,STARLINK-4701,PAYLOAD,2023-06-18 18:19:27,15.0882825,0.0001007,53.2176,40.5098,98.0684,262.0423,0.00026104,3.868e-05,0.0,0 STARLINK-4701,1 53727U 22107AD  23169.76351312  .00003868  00000-0  26104-3 0  9996,2 53727  53.2176  40.5098 0001007  98.0684 262.0423 15.08828250 44353,6917.916,95.438,540.478,539.085,0.0
53727.0,STARLINK-4701,PAYLOAD,2023-06-19 00:40:59,15.08850914,0.0001089,53.217,39.3208,94.056,266.0556,7.275e-05,8.71e-06,0.0,0 STARLINK-4701,1 53727U 22107AD  23170.02846683  .00000871  00000-0  72750-4 0  9997,2 53727  53.2170  39.3208 0001089  94.0560 266.0556 15.08850914 43795,6917.847,95.437,540.465,538.959,0.0
53727.0,STARLINK-4701,PAYLOAD,2023-06-19 08:37:55,15.08848161,0.0001039,53.2172,37.8329,94.4896,265.6215,5.0864e-06,-2.07e-06,0.0,0 STARLINK-4701,1 53727U 22107AD  23170.35966889 -.00000207  00000-0  50864-5 0  9991,2 53727  53.2172  37.8329 0001039  94.4896 265.6215 15.08848161 44446,6917.855,95.437,540.439,539.002,0.0
53727.0,STARLINK-4701,PAYLOAD,2023-06-19 21:21:01,15.08834653,0.0001088,53.2175,35.4537,101.0139,259.0976,0.00025092,3.707e-05,0.0,0 STARLINK-4701,1 53727U 22107AD  23170.88959535  .00003707  00000-0  25092-3 0  9999,2 53727  53.2175  35.4537 0001088 101.0139 259.0976 15.08834653 44524,6917.897,95.438,540.514,539.009,0.0
53727.0,STARLINK-4701,PAYLOAD,2023-06-20 00:31:47,15.08839889,0.000109,53.2175,34.8584,102.0891,258.0224,0.00022464,3.289e-05,0.0,0 STARLINK-4701,1 53727U 22107AD  23171.02207247  .00003289  00000-0  22464-3 0  9997,2 53727  53.2175  34.8584 0001090 102.0891 258.0224 15.08839889 43944,6917.881,95.438,540.5,538.992,0.0
53727.0,STARLINK-4701,PAYLOAD,2023-06-20 08:28:43,15.08838541,0.0001018,53.2192,33.3702,105.3639,254.7466,0.00013415,1.848e-05,0.0,0 STARLINK-4701,1 53727U 22107AD  23171.35327590  .00001848  00000-0  13415-3 0  9992,2 53727  53.2192  33.3702 0001018 105.3639 254.7466 15.08838541 44592,6917.885,95.438,540.454,539.046,0.0
53727.0,STARLINK-4701,PAYLOAD,2023-06-20 21:11:47,15.08849284,0.0001131,53.2183,30.9908,110.5314,249.58,1.6821e-05,-2e-07,0.0,0 STARLINK-4701,1 53727U 22107AD  23171.88319119 -.00000020  00000-0  16821-4 0  9995,2 53727  53.2183  30.9908 0001131 110.5314 249.5800 15.08849284 44676,6917.852,95.437,540.499,538.935,0.0
53727.0,STARLINK-4701,PAYLOAD,2023-06-21 00:22:33,15.08849851,0.0001131,53.2183,30.3959,111.1468,248.9645,2.2386e-05,6.9e-07,0.0,0 STARLINK-4701,1 53727U 22107AD  23172.01566982  .00000069  00000-0  22386-4 0  9998,2 53727  53.2183  30.3959 0001131 111.1468 248.9645 15.08849851 44695,6917.85,95.437,540.498,538.933,0.0
53727.0,STARLINK-4701,PAYLOAD,2023-06-21 19:27:11,15.0884135,0.0001063,53.2181,26.8282,95.576,264.5353,4.1799e-05,3.78e-06,0.0,0 STARLINK-4701,1 53727U 22107AD  23172.81055427  .00000378  00000-0  41799-4 0  9995,2 53727  53.2181  26.8282 0001063  95.5760 264.5353 15.08841350 44210,6917.876,95.437,540.477,539.006,0.0
53727.0,STARLINK-4701,PAYLOAD,2023-06-23 00:04:07,15.08848085,9.15e-05,53.217,21.4775,83.9979,276.1117,6.595e-05,7.62e-06,0.0,0 STARLINK-4701,1 53727U 22107AD  23174.00286960  .00000762  00000-0  65950-4 0  9998,2 53727  53.2170  21.4775 0000915  83.9979 276.1117 15.08848085 44392,6917.856,95.437,540.354,539.088,0.0
53727.0,STARLINK-4701,PAYLOAD,2023-06-23 17:33:23,15.0884354,0.0001237,53.2176,18.2066,84.4895,275.6239,-8.0675e-05,-1.572e-05,0.0,0 STARLINK-4701,1 53727U 22107AD  23174.73151926 -.00001572  00000-0 -80675-4 0  9994,2 53727  53.2176  18.2066 0001237  84.4895 275.6239 15.08843540 44509,6917.87,95.437,540.59,538.879,0.0
53727.0,STARLINK-4701,PAYLOAD,2023-06-24 23:45:42,15.0884546,0.000125,53.2174,12.5569,84.6658,275.4477,5.2375e-05,5.46e-06,0.0,0 STARLINK-4701,1 53727U 22107AD  23175.99007647  .00000546  00000-0  52375-4 0  9997,2 53727  53.2174  12.5569 0001250  84.6658 275.4477 15.08845460 44691,6917.864,95.437,540.593,538.864,0.0
53727.0,STARLINK-4701,PAYLOAD,2023-06-26 05:58:02,15.08843464,0.0001142,53.2178,6.9047,73.2196,286.8921,-2.6404e-05,-7.08e-06,0.0,0 STARLINK-4701,1 53727U 22107AD  23177.24864056 -.00000708  00000-0 -26404-4 0  9998,2 53727  53.2178   6.9047 0001142  73.2196 286.8921 15.08843464 44887,6917.87,95.437,540.525,538.945,0.0
53727.0,STARLINK-4701,PAYLOAD,2023-06-26 17:05:45,15.08834035,0.0001435,53.2188,4.8274,77.3895,282.7258,2.1407e-05,5.3e-07,0.0,0 STARLINK-4701,1 53727U 22107AD  23177.71232892  .00000053  00000-0  21407-4 0  9996,2 53727  53.2188   4.8274 0001435  77.3895 282.7258 15.08834035 44953,6917.899,95.438,540.756,538.771,0.0
53727.0,STARLINK-4701,PAYLOAD,2023-06-27 05:48:49,15.08840467,0.0001476,53.2174,2.4465,66.328,293.7866,1.2365e-05,-9.1e-07,0.0,0 STARLINK-4701,1 53727U 22107AD  23178.24224397 -.00000091  00000-0  12365-4 0  9992,2 53727  53.2174   2.4465 0001476  66.3280 293.7866 15.08840467 45038,6917.879,95.438,540.765,538.723,0.0
53727.0,STARLINK-4701,PAYLOAD,2023-06-27 23:18:03,15.08852276,9.98e-05,53.2172,359.1761,104.5191,255.5912,7.0021e-05,8.27e-06,0.0,0 STARLINK-4701,1 53727U 22107AD  23178.97087355  .00000827  00000-0  70021-4 0  9992,2 53727  53.2172 359.1761 0000998 104.5191 255.5912 15.08852276 45142,6917.843,95.437,540.398,539.017,0.0
53727.0,STARLINK-4701,PAYLOAD,2023-06-28 05:39:36,15.0883867,0.000114,53.2185,357.9877,73.6559,286.4558,3.8273e-05,3.21e-06,0.0,0 STARLINK-4701,1 53727U 22107AD  23179.23584424  .00000321  00000-0  38273-4 0  9993,2 53727  53.2185 357.9877 0001140  73.6559 286.4558 15.08838670 45189,6917.884,95.438,540.538,538.961,0.0
53727.0,STARLINK-4701,PAYLOAD,2023-06-29 18:13:28,15.08842372,0.0001043,53.2178,351.147,82.8385,277.2725,1.8337e-05,4e-08,0.0,0 STARLINK-4701,1 53727U 22107AD  23180.75936273  .00000004  00000-0  18337-4 0  9992,2 53727  53.2178 351.1470 0001043  82.8385 277.2725 15.08842372 45411,6917.873,95.437,540.46,539.017,0.0
53727.0,STARLINK-4701,PAYLOAD,2023-06-30 14:53:29,15.08836793,0.0001061,53.2181,347.2815,91.0816,269.0297,1.6221e-05,-3e-07,0.0,0 STARLINK-4701,1 53727U 22107AD  23181.62048608 -.00000030  00000-0  16221-4 0  9995,2 53727  53.2181 347.2815 0001061  91.0816 269.0297 15.08836793 45542,6917.89,95.438,540.489,539.021,0.0
53727.0,STARLINK-4701,PAYLOAD,2023-06-30 21:15:02,15.08843599,0.0001029,53.218,346.0916,90.5036,269.6074,5.8505e-05,6.44e-06,0.0,0 STARLINK-4701,1 53727U 22107AD  23181.88544017  .00000644  00000-0  58505-4 0  9999,2 53727  53.2180 346.0916 0001029  90.5036 269.6074 15.08843599 45587,6917.869,95.437,540.446,539.023,0.0
53727.0,STARLINK-4701,PAYLOAD,2023-07-01 03:36:35,15.08835537,9.61e-05,53.2174,344.9003,82.1888,277.9213,2.742e-05,1.49e-06,0.0,0 STARLINK-4701,1 53727U 22107AD  23182.15040657  .00000149  00000-0  27420-4 0  9993,2 53727  53.2174 344.9003 0000961  82.1888 277.9213 15.08835537 45625,6917.894,95.438,540.424,539.094,0.0
53727.0,STARLINK-4701,PAYLOAD,2023-07-02 14:35:04,15.08841349,9.41e-05,53.2168,338.3604,93.4194,266.6905,1.7665e-05,-7e-08,0.0,0 STARLINK-4701,1 53727U 22107AD  23183.60768700 -.00000007  00000-0  17665-4 0  9994,2 53727  53.2168 338.3604 0000941  93.4194 266.6905 15.08841349 45840,6917.876,95.437,540.392,539.09,0.0
53727.0,STARLINK-4701,PAYLOAD,2023-07-02 20:56:36,15.08847439,0.0001,53.2173,337.1707,94.3844,265.7263,8.4256e-05,1.054e-05,0.0,0 STARLINK-4701,1 53727U 22107AD  23183.87264101  .00001054  00000-0  84256-4 0  9991,2 53727  53.2173 337.1707 0001000  94.3844 265.7263 15.08847439 45883,6917.858,95.437,540.414,539.031,0.0
